ISS (ZARYA)
1 25544U 98067A   25325.95833333  .00016717  00000-0  10270-3 0  9996
2 25544  51.6432  180.1234  0007890  123.4567  236.7890 15.50123456 12345

STARLINK-1007
1 44713U 19074D   25325.87654321  .00001234  00000-0  78901-4 0  9999
2 44713  53.0000  123.4567  0001234  180.0000  180.0000 15.49789012  9998